{
    "links": {
        "self": "http://www.neowsapp.com/rest/v1/neo/3799641?api_key=iIulBulltgU6a56xZRHN4H3l9WmuAYTsLGpBGhQ2"
    },
    "id": "3799641",
    "neo_reference_id": "3799641",
    "name": "(2018 CY13)",
    "designation": "2018 CY13",
    "nasa_jpl_url": "http://ssd.jpl.nasa.gov/sbdb.cgi?sstr=3799641",
    "absolute_magnitude_h": 24.2,
    "estimated_diameter": {
        "kilometers": {
            "estimated_diameter_min": 0.0384197891,
            "estimated_diameter_max": 0.0859092601
        },
        "meters": {
            "estimated_diameter_min": 38.4197891064,
            "estimated_diameter_max": 85.9092601232
        },
        "miles": {
            "estimated_diameter_min": 0.0238729428,
            "estimated_diameter_max": 0.0533815229
        },
        "feet": {
            "estimated_diameter_min": 126.0491808919,
            "estimated_diameter_max": 281.8545369825
        }
    },
    "is_potentially_hazardous_asteroid": false,
    "close_approach_data": [
        {
            "close_approach_date": "2018-02-21",
            "close_approach_date_full": "2018-Feb-21 09:01",
            "epoch_date_close_approach": 1519203660000,
            "relative_velocity": {
                "kilometers_per_second": "10.9852383556",
                "kilometers_per_hour": "39546.8580800855",
                "miles_per_hour": "24572.8796775953"
            },
            "miss_distance": {
                "astronomical": "0.1383266141",
                "lunar": "53.8090528849",
                "kilometers": "20693366.833671967",
                "miles": "12858261.9049164646"
            },
            "orbiting_body": "Earth"
        },
        {
            "close_approach_date": "2018-07-20",
            "close_approach_date_full": "2018-Jul-20 22:43",
            "epoch_date_close_approach": 1532126580000,
            "relative_velocity": {
                "kilometers_per_second": "9.2066021713",
                "kilometers_per_hour": "33143.7678166943",
                "miles_per_hour": "20594.2483969899"
            },
            "miss_distance": {
                "astronomical": "0.2957739843",
                "lunar": "115.0560798927",
                "kilometers": "44247158.052693441",
                "miles": "27493909.1044378458"
            },
            "orbiting_body": "Earth"
        }
    ],
    "orbital_data": {
        "orbit_id": "2",
        "orbit_determination_date": "2018-03-06 06:21:27",
        "first_observation_date": "2018-02-11",
        "last_observation_date": "2018-03-06",
        "data_arc_in_days": 23,
        "observations_used": 18,
        "orbit_uncertainty": "8",
        "minimum_orbit_intersection": ".132067",
        "jupiter_tisserand_invariant": "4.734",
        "epoch_osculation": "2458162.5",
        "eccentricity": ".3089863898258175",
        "semi_major_axis": "1.368510355655479",
        "inclination": "17.3021393735642",
        "ascending_node_longitude": "315.4539951875286",
        "orbital_period": "584.7504423740796",
        "perihelion_distance": ".9456592814222473",
        "perihelion_argument": "259.9698553870883",
        "aphelion_distance": "1.791361429888711",
        "perihelion_time": "2458229.137836962697",
        "mean_anomaly": "318.9745991312578",
        "mean_motion": ".6156472469493215",
        "equinox": "J2000",
        "orbit_class": {
            "orbit_class_type": "APO",
            "orbit_class_description": "Near-Earth asteroid orbits which cross the Earth’s orbit similar to that of 1862 Apollo",
            "orbit_class_range": "a (semi-major axis) > 1.0 AU; q (perihelion) < 1.017 AU"
        }
    },
    "is_sentry_object": false
}